{
    "week": 287,
    "satellites": [
        {
            "Name": "COSMOS 2433 (720)",
            "Line1": "1 32275U 07052A   24280.43324297 -.00000049  00000+0  00000+0 0  9995",
            "Line2": "2 32275  65.8901 336.6798 0005341 235.8428 124.1812  2.13104181131912",
            "SatelliteNumber": "32275",
            "Classification": "U",
            "LaunchYear": "07",
            "LaunchNumber": "052",
            "PieceOfLaunch": "A",
            "EpochYear": "24",
            "EpochDay": 280.43324297,
            "FirstDerivativeMeanMotion": -4.9e-07,
            "SecondDerivativeMeanMotion": "00000+0",
            "BSTAR": "00000+0",
            "SetNumber": "999",
            "Inclination": 65.8901,
            "RAAN": 336.6798,
            "Eccentricity": 0.0005341,
            "ArgumentOfPerigee": 235.8428,
            "MeanAnomaly": 124.1812,
            "MeanMotion": 2.13104181,
            "RevolutionNumber": "13191"
        },
        {
            "Name": "COSMOS 2432 (719)",
            "Line1": "1 32276U 07052B   24279.72967490 -.00000051  00000+0  00000+0 0  9997",
            "Line2": "2 32276  65.9055 336.8193 0009630 309.5731 176.5702  2.13103233131888",
            "SatelliteNumber": "32276",
            "Classification": "U",
            "LaunchYear": "07",
            "LaunchNumber": "052",
            "PieceOfLaunch": "B",
            "EpochYear": "24",
            "EpochDay": 279.7296749,
            "FirstDerivativeMeanMotion": -5.1e-07,
            "SecondDerivativeMeanMotion": "00000+0",
            "BSTAR": "00000+0",
            "SetNumber": "999",
            "Inclination": 65.9055,
            "RAAN": 336.8193,
            "Eccentricity": 0.000963,
            "ArgumentOfPerigee": 309.5731,
            "MeanAnomaly": 176.5702,
            "MeanMotion": 2.13103233,
            "RevolutionNumber": "13188"
        },
        {
            "Name": "COSMOS 2434 (721)",
            "Line1": "1 32393U 07065A   24279.35027243  .00000027  00000+0  00000+0 0  9995",
            "Line2": "2 32393  64.3188 212.8436 0001720  60.8574  80.5262  2.13101351130596",
            "SatelliteNumber": "32393",
            "Classification": "U",
            "LaunchYear": "07",
            "LaunchNumber": "065",
            "PieceOfLaunch": "A",
            "EpochYear": "24",
            "EpochDay": 279.35027243,
            "FirstDerivativeMeanMotion": 2.7e-07,
            "SecondDerivativeMeanMotion": "00000+0",
            "BSTAR": "00000+0",
            "SetNumber": "999",
            "Inclination": 64.3188,
            "RAAN": 212.8436,
            "Eccentricity": 0.000172,
            "ArgumentOfPerigee": 60.8574,
            "MeanAnomaly": 80.5262,
            "MeanMotion": 2.13101351,
            "RevolutionNumber": "13059"
        },
        {
            "Name": "COSMOS 2436 (723)",
            "Line1": "1 32395U 07065C   24279.92109139  .00000030  00000+0  00000+0 0  9999",
            "Line2": "2 32395  64.3274 212.8899 0016681 358.8625 355.3782  2.13100103130534",
            "SatelliteNumber": "32395",
            "Classification": "U",
            "LaunchYear": "07",
            "LaunchNumber": "065",
            "PieceOfLaunch": "C",
            "EpochYear": "24",
            "EpochDay": 279.92109139,
            "FirstDerivativeMeanMotion": 3e-07,
            "SecondDerivativeMeanMotion": "00000+0",
            "BSTAR": "00000+0",
            "SetNumber": "999",
            "Inclination": 64.3274,
            "RAAN": 212.8899,
            "Eccentricity": 0.0016681,
            "ArgumentOfPerigee": 358.8625,
            "MeanAnomaly": 355.3782,
            "MeanMotion": 2.13100103,
            "RevolutionNumber": "13053"
        },
        {
            "Name": "COSMOS 2456 (730)",
            "Line1": "1 36111U 09070A   24279.24228166  .00000040  00000+0  00000+0 0  9995",
            "Line2": "2 36111  64.6655  92.1809 0001409 337.6079 235.1462  2.13103832115210",
            "SatelliteNumber": "36111",
            "Classification": "U",
            "LaunchYear": "09",
            "LaunchNumber": "070",
            "PieceOfLaunch": "A",
            "EpochYear": "24",
            "EpochDay": 279.24228166,
            "FirstDerivativeMeanMotion": 4e-07,
            "SecondDerivativeMeanMotion": "00000+0",
            "BSTAR": "00000+0",
            "SetNumber": "999",
            "Inclination": 64.6655,
            "RAAN": 92.1809,
            "Eccentricity": 0.0001409,
            "ArgumentOfPerigee": 337.6079,
            "MeanAnomaly": 235.1462,
            "MeanMotion": 2.13103832,
            "RevolutionNumber": "11521"
        },
        {
            "Name": "COSMOS 2457 (733)",
            "Line1": "1 36112U 09070B   24280.40005274  .00000044  00000+0  00000+0 0  9993",
            "Line2": "2 36112  64.6505  91.9973 0006246 143.3492  10.7228  2.13101261115287",
            "SatelliteNumber": "36112",
            "Classification": "U",
            "LaunchYear": "09",
            "LaunchNumber": "070",
            "PieceOfLaunch": "B",
            "EpochYear": "24",
            "EpochDay": 280.40005274,
            "FirstDerivativeMeanMotion": 4.4e-07,
            "SecondDerivativeMeanMotion": "00000+0",
            "BSTAR": "00000+0",
            "SetNumber": "999",
            "Inclination": 64.6505,
            "RAAN": 91.9973,
            "Eccentricity": 0.0006246,
            "ArgumentOfPerigee": 143.3492,
            "MeanAnomaly": 10.7228,
            "MeanMotion": 2.13101261,
            "RevolutionNumber": "11528"
        },
        {
            "Name": "COSMOS 2460 (732)",
            "Line1": "1 36402U 10007C   24280.27847510 -.00000048  00000+0  00000+0 0  9994",
            "Line2": "2 36402  65.7443 335.3312 0002386 233.5508 180.5651  2.13106332113632",
            "SatelliteNumber": "36402",
            "Classification": "U",
            "LaunchYear": "10",
            "LaunchNumber": "007",
            "PieceOfLaunch": "C",
            "EpochYear": "24",
            "EpochDay": 280.2784751,
            "FirstDerivativeMeanMotion": -4.8e-07,
            "SecondDerivativeMeanMotion": "00000+0",
            "BSTAR": "00000+0",
            "SetNumber": "999",
            "Inclination": 65.7443,
            "RAAN": 335.3312,
            "Eccentricity": 0.0002386,
            "ArgumentOfPerigee": 233.5508,
            "MeanAnomaly": 180.5651,
            "MeanMotion": 2.13106332,
            "RevolutionNumber": "11363"
        },
        {
            "Name": "COSMOS 2476 (744)",
            "Line1": "1 37867U 11064A   24279.51875354  .00000043  00000+0  00000+0 0  9990",
            "Line2": "2 37867  64.9368  93.8474 0021839 230.4176 106.3883  2.13101667100557",
            "SatelliteNumber": "37867",
            "Classification": "U",
            "LaunchYear": "11",
            "LaunchNumber": "064",
            "PieceOfLaunch": "A",
            "EpochYear": "24",
            "EpochDay": 279.51875354,
            "FirstDerivativeMeanMotion": 4.3e-07,
            "SecondDerivativeMeanMotion": "00000+0",
            "BSTAR": "00000+0",
            "SetNumber": "999",
            "Inclination": 64.9368,
            "RAAN": 93.8474,
            "Eccentricity": 0.0021839,
            "ArgumentOfPerigee": 230.4176,
            "MeanAnomaly": 106.3883,
            "MeanMotion": 2.13101667,
            "RevolutionNumber": "10055"
        },
        {
            "Name": "COSMOS 2477 (745)",
            "Line1": "1 37868U 11064B   24280.25454965  .00000046  00000+0  00000+0 0  9998",
            "Line2": "2 37868  64.9439  93.8960 0019007 230.5485 129.4057  2.13103127100568",
            "SatelliteNumber": "37868",
            "Classification": "U",
            "LaunchYear": "11",
            "LaunchNumber": "064",
            "PieceOfLaunch": "B",
            "EpochYear": "24",
            "EpochDay": 280.25454965,
            "FirstDerivativeMeanMotion": 4.6e-07,
            "SecondDerivativeMeanMotion": "00000+0",
            "BSTAR": "00000+0",
            "SetNumber": "999",
            "Inclination": 64.9439,
            "RAAN": 93.896,
            "Eccentricity": 0.0019007,
            "ArgumentOfPerigee": 230.5485,
            "MeanAnomaly": 129.4057,
            "MeanMotion": 2.13103127,
            "RevolutionNumber": "10056"
        },
        {
            "Name": "COSMOS 2475 (743)",
            "Line1": "1 37869U 11064C   24279.83606139  .00000044  00000+0  00000+0 0  9991",
            "Line2": "2 37869  64.9504  93.9259 0023317 247.7804 109.0454  2.13101879100565",
            "SatelliteNumber": "37869",
            "Classification": "U",
            "LaunchYear": "11",
            "LaunchNumber": "064",
            "PieceOfLaunch": "C",
            "EpochYear": "24",
            "EpochDay": 279.83606139,
            "FirstDerivativeMeanMotion": 4.4e-07,
            "SecondDerivativeMeanMotion": "00000+0",
            "BSTAR": "00000+0",
            "SetNumber": "999",
            "Inclination": 64.9504,
            "RAAN": 93.9259,
            "Eccentricity": 0.0023317,
            "ArgumentOfPerigee": 247.7804,
            "MeanAnomaly": 109.0454,
            "MeanMotion": 2.13101879,
            "RevolutionNumber": "10056"
        }
    ]
}